     3.02           N: GNSS NAV DATA    G: GPS              RINEX VERSION / TYPE
CHC                 CHC                 20250609 013017 UTC PGM / RUN BY / DATE 
    18                                                      LEAP SECONDS        
                                                            END OF HEADER       
G04 2025  6  9  4 14 40  5.76523598284D-04  4.43378667114D-12  0.00000000000D+00
      1.45000000000D+02  2.40625000000D+00  4.50625913235D-09 -2.09411064041D+00
     -8.38190317154D-08  3.29143984709D-03  8.30739736557D-06  5.15361020088D+03
      1.01680000000D+05  5.40167093277D-08 -2.61195694807D+00 -8.19563865662D-08
      9.68062096838D-01  2.26000000000D+02 -2.90973592730D+00 -7.79746765297D-09
      6.23240246172D-10  0.00000000000D+00  2.37000000000D+03  0.00000000000D+00
      9.65000000000D+00  0.00000000000D+00 -4.65661287308D-09  9.13000000000D+02
      1.01680000000D+05  0.00000000000D+00  0.00000000000D+00  0.00000000000D+00
G06 2025  6  9  4  0  0 -3.97696625441D-04 -1.77351466846D-11  0.00000000000D+00
      1.00000000000D+01 -5.05937500000D+01  3.89337646047D-09  2.38621133677D+00
     -2.54809856415D-06  3.33580956794D-03  1.51991844177D-06  5.15358295250D+03
      1.00800000000D+05 -3.72529029846D-09  1.56150870903D+00 -2.23517417908D-08
      9.88375197131D-01  3.66062500000D+02 -6.40016552378D-01 -7.94068790438D-09
     -1.16433421348D-10  0.00000000000D+00  2.37000000000D+03  0.00000000000D+00
      9.65000000000D+00  0.00000000000D+00  3.72529029846D-09  1.00000000000D+01
      1.00800000000D+05  0.00000000000D+00  0.00000000000D+00  0.00000000000D+00
G09 2025  6  9  4  0  0  6.79847784340D-04  9.09494701773D-12  0.00000000000D+00
      8.60000000000D+01  1.37500000000D+00  4.64555064869D-09 -1.35149630475D+00
      1.19209289551D-07  3.11979488470D-03  8.68737697601D-06  5.15369453239D+03
      1.00800000000D+05 -4.84287738800D-08 -2.67427255204D+00 -1.11758708954D-08
      9.62041264377D-01  2.18718750000D+02  1.99766140234D+00 -7.88211403597D-09
      6.04668043994D-10  0.00000000000D+00  2.37000000000D+03  0.00000000000D+00
      9.65000000000D+00  0.00000000000D+00  4.65661287308D-10  8.60000000000D+01
      1.00800000000D+05  0.00000000000D+00  0.00000000000D+00  0.00000000000D+00
G11 2025  6  9  4  0  0 -6.98206946254D-04  7.50333128963D-12  0.00000000000D+00
      7.60000000000D+01 -5.45625000000D+01  4.31553690229D-09 -2.65095747948D+00
     -2.75485217571D-06  1.80062092841D-03  1.67079269886D-06  5.15367228127D+03
      1.00800000000D+05 -2.98023223877D-08  1.58618307094D+00 -9.31322574615D-09
      9.65149795597D-01  3.49218750000D+02 -2.42419575600D+00 -8.17855495536D-09
     -4.64305054455D-11  0.00000000000D+00  2.37000000000D+03  0.00000000000D+00
      9.65000000000D+00  0.00000000000D+00 -8.84756445885D-09  3.32000000000D+02
      1.00800000000D+05  0.00000000000D+00  0.00000000000D+00  0.00000000000D+00
G12 2025  6  9  4  0  0 -5.87907619774D-04 -1.47792889038D-12  0.00000000000D+00
      1.80000000000D+01  5.00625000000D+01  4.32696594979D-09  8.14273631045D-01
      2.52947211266D-06  8.75311926939D-03  1.02352350950D-05  5.15368421936D+03
      1.00800000000D+05 -1.32247805595D-07 -4.84375385688D-01 -3.72529029846D-08
      9.60441308910D-01  1.84656250000D+02  1.51002342992D+00 -7.90068623815D-09
     -4.78234206089D-10  0.00000000000D+00  2.37000000000D+03  0.00000000000D+00
      9.65000000000D+00  0.00000000000D+00 -1.25728547573D-08  1.80000000000D+01
      1.00800000000D+05  0.00000000000D+00  0.00000000000D+00  0.00000000000D+00
G14 2025  6  9  4  0  0  6.57108146697D-04  5.11590769747D-12  0.00000000000D+00
      2.29000000000D+02  4.08750000000D+01  4.78305637635D-09  6.73294009284D-01
      2.26125121117D-06  5.90344180819D-03  9.75839793682D-06  5.15371884918D+03
      1.00800000000D+05  1.49011611938D-08 -5.34743677101D-01  9.87201929092D-08
      9.43726270261D-01  1.79093750000D+02 -2.79585573944D+00 -8.04819238237D-09
     -5.64666377764D-10  0.00000000000D+00  2.37000000000D+03  0.00000000000D+00
      9.65000000000D+00  0.00000000000D+00 -7.91624188423D-09  4.85000000000D+02
      1.00800000000D+05  0.00000000000D+00  0.00000000000D+00  0.00000000000D+00
G17 2025  6  9  4  0  0  2.42955982685D-04 -1.72803993337D-11  0.00000000000D+00
      3.20000000000D+01  1.16343750000D+02  4.33018036939D-09 -1.91277598309D+00
      6.15231692791D-06  1.30558927776D-02  4.56534326077D-06  5.15370232010D+03
      1.00800000000D+05 -2.79396772385D-08  5.51999843295D-01  3.44589352608D-07
      9.63468943686D-01  2.96437500000D+02 -1.21142069322D+00 -8.04962101331D-09
      8.07176479283D-11  0.00000000000D+00  2.37000000000D+03  0.00000000000D+00
      9.65000000000D+00  0.00000000000D+00 -1.11758708954D-08  3.20000000000D+01
      1.00800000000D+05  0.00000000000D+00  0.00000000000D+00  0.00000000000D+00
G19 2025  6  9  4  0  0  6.36137556285D-04  3.41060513165D-12  0.00000000000D+00
      4.20000000000D+01  9.96250000000D+01  4.46518599292D-09 -5.80113361764D-02
      5.01796603203D-06  1.06261580950D-02  4.28780913353D-06  5.15364020920D+03
      1.00800000000D+05  1.86264514923D-07  5.96082443855D-01 -9.31322574615D-08
      9.62659730550D-01  3.01531250000D+02  2.78594817356D+00 -8.29105964163D-09
      6.00024993449D-11  0.00000000000D+00  2.37000000000D+03  0.00000000000D+00
      9.65000000000D+00  0.00000000000D+00 -1.53668224812D-08  4.20000000000D+01
      1.00800000000D+05  0.00000000000D+00  0.00000000000D+00  0.00000000000D+00
G20 2025  6  9  4  0  0  3.64094506949D-04 -2.27373675443D-13  0.00000000000D+00
      2.50000000000D+01 -1.13843750000D+02  4.18124559423D-09  2.57288062287D+00
     -5.83007931709D-06  3.45994904637D-03  7.48224556446D-06  5.15379182053D+03
      1.00800000000D+05  1.67638063431D-08  2.40582061839D+00 -7.26431608200D-08
      9.58823066967D-01  2.33250000000D+02 -2.25945958518D+00 -7.85925594098D-09
      4.14302971667D-11  0.00000000000D+00  2.37000000000D+03  0.00000000000D+00
      9.65000000000D+00  0.00000000000D+00 -8.38190317154D-09  2.50000000000D+01
      1.00800000000D+05  0.00000000000D+00  0.00000000000D+00  0.00000000000D+00
G22 2025  6  9  4  0  0 -1.02743040770D-04  4.54747350886D-13  0.00000000000D+00
      1.00000000000D+02  5.41562500000D+01  4.39946896983D-09 -1.39095119950D+00
      2.77720391750D-06  1.31058099214D-02  1.03563070297D-05  5.15365950966D+03
      1.00800000000D+05 -3.05473804474D-07 -4.63695302153D-01 -1.86264514923D-09
      9.59122167882D-01  1.79781250000D+02 -1.06103334958D+00 -7.96854620765D-09
     -4.31089385175D-10  0.00000000000D+00  2.37000000000D+03  0.00000000000D+00
      9.65000000000D+00  0.00000000000D+00 -1.11758708954D-08  1.00000000000D+02
      1.00800000000D+05  0.00000000000D+00  0.00000000000D+00  0.00000000000D+00
G30 2025  6  9  2  0  0 -1.23628880829D-04  1.00044417195D-11  0.00000000000D+00
      8.50000000000D+01 -1.14687500000D+01  5.57773233494D-09  2.89199443072D-01
     -4.74974513054D-07  7.70577066578D-03  5.35696744919D-06  5.15366516113D+03
      9.36000000000D+04 -2.79396772385D-08 -1.60619149660D+00  3.35276126862D-08
      9.35199390374D-01  2.59468750000D+02 -2.36260304276D+00 -8.58250035273D-09
     -3.54657630057D-10  0.00000000000D+00  2.37000000000D+03  0.00000000000D+00
      9.65000000000D+00  0.00000000000D+00  3.72529029846D-09  8.50000000000D+01
      9.36000000000D+04  0.00000000000D+00  0.00000000000D+00  0.00000000000D+00
G01 2025  6  9  4  0  0  2.86091584712D-04  1.09139364213D-11  0.00000000000D+00
      2.14000000000D+02 -6.42812500000D+01  4.54947521819D-09  3.00935796112D+00
     -3.25590372086D-06  5.64158312045D-04  1.01327896118D-06  5.15372135735D+03
      1.00800000000D+05  3.53902578354D-08  1.61853376778D+00  3.72529029846D-08
      9.59181468730D-01  3.59812500000D+02  2.33671727788D-01 -8.40427864337D-09
     -8.82179603464D-11  0.00000000000D+00  2.37000000000D+03  0.00000000000D+00
      9.65000000000D+00  0.00000000000D+00 -8.84756445885D-09  2.14000000000D+02
      1.00800000000D+05  0.00000000000D+00  0.00000000000D+00  0.00000000000D+00
G03 2025  6  9  4  0  0  6.92982226610D-04  3.41060513165D-13  0.00000000000D+00
      1.72000000000D+02 -1.14437500000D+02  3.52371820558D-09  1.12860094649D+00
     -6.00889325142D-06  6.31442933809D-03  9.44361090660D-06  5.15377324104D+03
      1.00800000000D+05 -9.87201929092D-08  2.59742494015D+00  2.23517417908D-08
      9.90126949367D-01  2.11500000000D+02  1.17343580732D+00 -7.59603069088D-09
      1.09647424398D-10  0.00000000000D+00  2.37000000000D+03  0.00000000000D+00
      4.80000000000D+01  0.00000000000D+00  1.39698386192D-09  1.72000000000D+02
      1.00800000000D+05  0.00000000000D+00  0.00000000000D+00  0.00000000000D+00
G04 2025  6  9  4 14 40  5.76523598284D-04  4.43378667114D-12  0.00000000000D+00
      1.45000000000D+02  2.40625000000D+00  4.50625913235D-09 -2.09411064041D+00
     -8.38190317154D-08  3.29143984709D-03  8.30739736557D-06  5.15361020088D+03
      1.01680000000D+05  5.40167093277D-08 -2.61195694807D+00 -8.19563865662D-08
      9.68062096838D-01  2.26000000000D+02 -2.90973592730D+00 -7.79746765297D-09
      6.23240246172D-10  0.00000000000D+00  2.37000000000D+03  0.00000000000D+00
      9.65000000000D+00  0.00000000000D+00 -4.65661287308D-09  9.13000000000D+02
      1.01680000000D+05  0.00000000000D+00  0.00000000000D+00  0.00000000000D+00
